NORAD_CAT_ID,OBJECT_NAME,OBJECT_TYPE,EPOCH,MEAN_MOTION,ECCENTRICITY,INCLINATION,RA_OF_ASC_NODE,ARG_OF_PERICENTER,MEAN_ANOMALY,BSTAR,MEAN_MOTION_DOT,MEAN_MOTION_DDOT,TLE_LINE0,TLE_LINE1,TLE_LINE2,SEMIMAJOR_AXIS,PERIOD,APOGEE,PERIGEE,DECAYED
54007.0,STARLINK-5132,PAYLOAD,2022-11-20 22:00:00,15.49865277,0.0001619,53.2167,225.4624,93.4703,185.865,-0.00057687,-0.00033032,0.0,0 STARLINK-5132,1 54007U 22125AV  22324.91667824 -.00033032  00000-0 -57687-3 0  9993,2 54007  53.2167 225.4624 0001619  93.4703 185.8650 15.49865277  7598,6795.257,92.911,418.222,416.022,0.0
54007.0,STARLINK-5132,PAYLOAD,2022-11-21 14:00:01,15.49836879,0.0001575999999999,53.2167,222.2753,97.0779,304.0102,0.00104,0.00058919,0.0,0 STARLINK-5132,1 54007U 22125AV  22325.58334491  .00058919  00000-0  10400-2 0  9998,2 54007  53.2167 222.2753 0001576  97.0779 304.0102 15.49836879  1307,6795.34,92.913,418.276,416.134,0.0
54007.0,STARLINK-5132,PAYLOAD,2022-11-21 22:00:00,15.49885632,0.0001636,53.2165,220.6839,92.1902,9.7749,-0.0003563,-0.00020621,0.0,0 STARLINK-5132,1 54007U 22125AV  22325.91667824 -.00020621  00000-0 -35630-3 0  9998,2 54007  53.2165 220.6839 0001636  92.1902   9.7749 15.49885632  1300,6795.196999999999,92.91,418.174,415.951,0.0
54007.0,STARLINK-5132,PAYLOAD,2022-11-22 06:00:02,15.49881529,0.0001616,53.216,219.0913,88.2996,74.6322,0.00023309,0.00012798,0.0,0 STARLINK-5132,1 54007U 22125AV  22326.25002315  .00012798  00000-0  23309-3 0  9998,2 54007  53.2160 219.0913 0001616  88.2996  74.6322 15.49881529  7807,6795.209,92.91,418.172,415.976,0.0
54007.0,STARLINK-5132,PAYLOAD,2022-11-22 14:00:01,15.49826533,0.0001665,53.2159,217.4967,93.3794,130.4317,0.00098597,0.00055792,0.0,0 STARLINK-5132,1 54007U 22125AV  22326.58335648  .00055792  00000-0  98597-3 0  9994,2 54007  53.2159 217.4967 0001665  93.3794 130.4317 15.49826533  7857,6795.37,92.914,418.367,416.104,0.0
54007.0,STARLINK-5132,PAYLOAD,2022-11-22 22:00:00,15.49869147,0.0001709,53.2159,215.9055,88.9733,195.6376,-0.00024077,-0.00014085,0.0,0 STARLINK-5132,1 54007U 22125AV  22326.91667824 -.00014085  00000-0 -24077-3 0  9999,2 54007  53.2159 215.9055 0001709  88.9733 195.6376 15.49869147  1300,6795.246,92.911,418.272,415.949,0.0
54007.0,STARLINK-5132,PAYLOAD,2022-11-23 06:00:00,15.49870667,0.0001601,53.2156,214.3106,84.273,261.2233,0.0001535,8.265e-05,0.0,0 STARLINK-5132,1 54007U 22125AV  22327.25001157  .00008265  00000-0  15350-3 0  9993,2 54007  53.2156 214.3106 0001601  84.2730 261.2233 15.49870667  7952,6795.241,92.911,418.194,416.018,0.0
54007.0,STARLINK-5132,PAYLOAD,2022-11-23 14:00:01,15.50095287,0.0001334,53.2165,212.7124,80.8215,325.5406,-0.012796,-0.00672434,0.0,0 STARLINK-5132,1 54007U 22125AV  22327.58334491 -.00672434  00000-0 -12796-1 0  9995,2 54007  53.2165 212.7124 0001334  80.8215 325.5406 15.50095287  8009,6794.585,92.898,417.356,415.543,0.0
54007.0,STARLINK-5132,PAYLOAD,2022-11-23 22:00:00,15.49621826,0.0001164,53.2172,211.1192,99.0589,8.1923,-0.022633,-0.01163135,0.0,0 STARLINK-5132,1 54007U 22125AV  22327.91667824 -.01163135  00000-0 -22633-1 0  9996,2 54007  53.2172 211.1192 0001164  99.0589   8.1923 15.49621826  8057,6795.969,92.926,418.625,417.042,0.0
54007.0,STARLINK-5132,PAYLOAD,2022-11-24 14:00:01,15.47988728,0.0001182,53.2172,207.9366,89.4556,136.9889,-0.023799,-0.01155222,0.0,0 STARLINK-5132,1 54007U 22125AV  22328.58334491 -.01155222  00000-0 -23799-1 0  9993,2 54007  53.2172 207.9366 0001182  89.4556 136.9889 15.47988728  1307,6800.746999999999,93.024,423.416,421.809,0.0
54007.0,STARLINK-5132,PAYLOAD,2022-11-24 22:00:00,15.47177614,0.0001178,53.2173,206.3506,107.3474,177.2228,-0.024549,-0.01157999,0.0,0 STARLINK-5132,1 54007U 22125AV  22328.91667824 -.01157999  00000-0 -24549-1 0  9996,2 54007  53.2173 206.3506 0001178 107.3474 177.2228 15.47177614  8217,6803.124,93.073,425.79,424.18800000000016,0.0
54007.0,STARLINK-5132,PAYLOAD,2022-11-25 14:00:01,15.4554608,0.0001124,53.2172,203.1798,73.7673,324.1281,-0.02584,-0.01152295,0.0,0 STARLINK-5132,1 54007U 22125AV  22329.58334491 -.01152295  00000-0 -25840-1 0  9990,2 54007  53.2172 203.1798 0001124  73.7673 324.1281 15.45546080  1302,6807.911,93.171,430.541,429.011,0.0
54007.0,STARLINK-5132,PAYLOAD,2022-11-25 20:00:01,15.44940342,0.00011,53.2175,201.9945,103.1293,246.2505,-0.026518,-0.01157613,0.0,0 STARLINK-5132,1 54007U 22125AV  22329.83334491 -.01157613  00000-0 -26518-1 0  9990,2 54007  53.2175 201.9945 0001100 103.1293 246.2505 15.44940342  8358,6809.69,93.207,432.304,430.806,0.0
54007.0,STARLINK-5132,PAYLOAD,2022-11-25 22:00:00,15.44727144,0.0001199,53.2173,201.5997,93.0608,0.0308,-0.026392,-0.01144908,0.0,0 STARLINK-5132,1 54007U 22125AV  22329.91667824 -.01144908  00000-0 -26392-1 0  9991,2 54007  53.2173 201.5997 0001199  93.0608   0.0308 15.44727144  1302,6810.316999999999,93.22,432.99800000000016,431.365,0.0
54007.0,STARLINK-5132,PAYLOAD,2022-11-26 14:00:01,15.43103875,0.0001315999999999,53.2169,198.4406,82.5963,117.9495,-0.028046,-0.01150612,0.0,0 STARLINK-5132,1 54007U 22125AV  22330.58334491 -.01150612  00000-0 -28046-1 0  9994,2 54007  53.2169 198.4406 0001316  82.5963 117.9495 15.43103875  1307,6815.092,93.318,437.854,436.06,0.0
54007.0,STARLINK-5132,PAYLOAD,2022-11-26 22:00:00,15.42299145,0.0001301,53.2172,196.8665,107.078,145.7231,-0.02914,-0.01162278,0.0,0 STARLINK-5132,1 54007U 22125AV  22330.91667824 -.01162278  00000-0 -29140-1 0  9997,2 54007  53.2172 196.8665 0001301 107.0780 145.7231 15.42299145  8527,6817.4630000000025,93.367,440.215,438.441,0.0
54007.0,STARLINK-5132,PAYLOAD,2022-11-27 14:00:01,15.40674882,0.0001068,53.2167,193.7189,72.8272,281.5603,-0.030837,-0.01164451,0.0,0 STARLINK-5132,1 54007U 22125AV  22331.58334491 -.01164451  00000-0 -30837-1 0  9992,2 54007  53.2167 193.7189 0001068  72.8272 281.5603 15.40674882  1307,6822.253000000002,93.466,444.847,443.39,0.0
54007.0,STARLINK-5132,PAYLOAD,2022-11-27 22:00:00,15.39862021,0.0001119,53.217,192.1505,97.2771,306.4373,-0.031763,-0.01167161,0.0,0 STARLINK-5132,1 54007U 22125AV  22331.91667824 -.01167161  00000-0 -31763-1 0  9998,2 54007  53.2170 192.1505 0001119  97.2771 306.4373 15.39862021  8678,6824.654,93.515,447.283,445.755,0.0
54007.0,STARLINK-5132,PAYLOAD,2022-11-28 22:00:01,15.37429262,0.000137,53.217,187.4519,100.2453,85.6444,-0.034773,-0.01178401,0.0,0 STARLINK-5132,1 54007U 22125AV  22332.91668981 -.01178401  00000-0 -34773-1 0  9997,2 54007  53.2170 187.4519 0001370 100.2453  85.6444 15.37429262  8838,6831.851,93.663,454.652,452.78,0.0
54007.0,STARLINK-5132,PAYLOAD,2022-11-29 14:00:01,15.35793502,0.0001247,53.2168,184.3273,83.4347,192.3129,-0.036206,-0.0116475,0.0,0 STARLINK-5132,1 54007U 22125AV  22333.58335648 -.01164750  00000-0 -36206-1 0  9997,2 54007  53.2168 184.3273 0001247  83.4347 192.3129 15.35793502  1305,6836.7019999999975,93.763,459.419,457.714,0.0
54007.0,STARLINK-5132,PAYLOAD,2022-11-29 22:00:00,15.34972386,0.0001206,53.2171,182.771,98.3708,220.7759,-0.036874,-0.01156084,0.0,0 STARLINK-5132,1 54007U 22125AV  22333.91667824 -.01156084  00000-0 -36874-1 0  9990,2 54007  53.2171 182.7710 0001206  98.3708 220.7759 15.34972386  1301,6839.14,93.813,461.829,460.18,0.0
54007.0,STARLINK-5132,PAYLOAD,2022-11-30 06:00:00,15.34146809,0.00011,53.2174,181.2123,100.9401,260.6966,-0.037309,-0.01140614,0.0,0 STARLINK-5132,1 54007U 22125AV  22334.25001157 -.01140614  00000-0 -37309-1 0  9995,2 54007  53.2174 181.2123 0001100 100.9401 260.6966 15.34146809  9033,6841.593000000003,93.863,464.21,462.705,0.0
54007.0,STARLINK-5132,PAYLOAD,2022-11-30 14:00:01,15.33330413,0.000116,53.2174,179.6568,100.2746,302.9317,-0.0381,-0.01135383,0.0,0 STARLINK-5132,1 54007U 22125AV  22334.58335648 -.01135383  00000-0 -38100-1 0  9993,2 54007  53.2174 179.6568 0001160 100.2746 302.9317 15.33330413  1305,6844.021,93.913,466.68,465.092,0.0
54007.0,STARLINK-5132,PAYLOAD,2022-11-30 22:00:00,15.32519763,0.0001222,53.2175,178.1061,90.586,353.0809,-0.039299,-0.01140885,0.0,0 STARLINK-5132,1 54007U 22125AV  22334.91667824 -.01140885  00000-0 -39299-1 0  9997,2 54007  53.2175 178.1061 0001222  90.5860 353.0809 15.32519763  1304,6846.434,93.963,469.136,467.463,0.0
54007.0,STARLINK-5132,PAYLOAD,2022-12-01 06:00:00,15.31704737,0.0001341999999999,53.2174,176.5541,66.611,56.606,-0.04023,-0.01138518,0.0,0 STARLINK-5132,1 54007U 22125AV  22335.25001157 -.01138518  00000-0 -40230-1 0  9993,2 54007  53.2174 176.5541 0001342  66.6110  56.6060 15.31704737  9199,6848.863,94.013,471.647,469.809,0.0
54007.0,STARLINK-5132,PAYLOAD,2022-12-01 14:00:01,15.3089039,0.0001394,53.2177,175.0047,76.4446,85.3436,-0.041203,-0.01136803,0.0,0 STARLINK-5132,1 54007U 22125AV  22335.58334491 -.01136803  00000-0 -41203-1 0  9995,2 54007  53.2177 175.0047 0001394  76.4446  85.3436 15.30890390  1306,6851.291,94.063,474.112,472.201,0.0
54007.0,STARLINK-5132,PAYLOAD,2022-12-01 22:00:00,15.30125081,0.0001354,53.2175,173.4608,83.6412,115.7127,-0.044758,-0.01216109,0.0,0 STARLINK-5132,1 54007U 22125AV  22335.91667824 -.01216109  00000-0 -44758-1 0  9997,2 54007  53.2175 173.4608 0001354  83.6412 115.7127 15.30125081  1301,6853.576,94.11,476.369,474.513,0.0
54007.0,STARLINK-5132,PAYLOAD,2022-12-02 06:00:00,15.29264542,0.0001358,53.2175,171.9132,74.4055,161.5905,-0.043477,-0.01139991,0.0,0 STARLINK-5132,1 54007U 22125AV  22336.25001157 -.01139991  00000-0 -43477-1 0  9996,2 54007  53.2175 171.9132 0001358  74.4055 161.5905 15.29264542  9340,6856.147,94.163,478.943,477.081,0.0
54007.0,STARLINK-5132,PAYLOAD,2022-12-02 14:00:01,15.28426219,0.0001218,53.217,170.3705,71.7605,199.8826,-0.043035,-0.01102926,0.0,0 STARLINK-5132,1 54007U 22125AV  22336.58334491 -.01102926  00000-0 -43035-1 0  9990,2 54007  53.2170 170.3705 0001218  71.7605 199.8826 15.28426219  1304,6858.653,94.215,481.354,479.6830000000001,0.0
